[{"OBJECT_NAME":"NIMIQ 2","OBJECT_ID":"2002-062A","EPOCH":"2026-04-05T10:18:25.318080","MEAN_MOTION":1.00273627,"ECCENTRICITY":0.00065968,"INCLINATION":9.2794,"RA_OF_ASC_NODE":57.6528,"ARG_OF_PERICENTER":319.1088,"MEAN_ANOMALY":222.3899,"EPHEMERIS_TYPE":0,"CLASSIFICATION_TYPE":"U","NORAD_CAT_ID":27632,"ELEMENT_SET_NO":999,"REV_AT_EPOCH":4345,"BSTAR":0,"MEAN_MOTION_DOT":-6.6e-7,"MEAN_MOTION_DDOT":0},{"OBJECT_NAME":"ANIK F2","OBJECT_ID":"2004-027A","EPOCH":"2026-04-05T15:38:25.411200","MEAN_MOTION":1.00271898,"ECCENTRICITY":0.0004096,"INCLINATION":3.098,"RA_OF_ASC_NODE":80.3901,"ARG_OF_PERICENTER":322.7569,"MEAN_ANOMALY":274.2931,"EPHEMERIS_TYPE":0,"CLASSIFICATION_TYPE":"U","NORAD_CAT_ID":28378,"ELEMENT_SET_NO":999,"REV_AT_EPOCH":4053,"BSTAR":0,"MEAN_MOTION_DOT":-4.7e-7,"MEAN_MOTION_DDOT":0},{"OBJECT_NAME":"ANIK F1R","OBJECT_ID":"2005-036A","EPOCH":"2026-04-05T13:56:44.181024","MEAN_MOTION":1.00272748,"ECCENTRICITY":0.000324,"INCLINATION":4.1271,"RA_OF_ASC_NODE":77.4651,"ARG_OF_PERICENTER":314.8703,"MEAN_ANOMALY":263.4279,"EPHEMERIS_TYPE":0,"CLASSIFICATION_TYPE":"U","NORAD_CAT_ID":28868,"ELEMENT_SET_NO":999,"REV_AT_EPOCH":4572,"BSTAR":0,"MEAN_MOTION_DOT":-7.2e-7,"MEAN_MOTION_DDOT":0},{"OBJECT_NAME":"ANIK F3","OBJECT_ID":"2007-009A","EPOCH":"2026-04-05T15:36:10.626336","MEAN_MOTION":1.00271618,"ECCENTRICITY":0.0002848,"INCLINATION":1.0097,"RA_OF_ASC_NODE":84.6797,"ARG_OF_PERICENTER":289.0293,"MEAN_ANOMALY":295.5709,"EPHEMERIS_TYPE":0,"CLASSIFICATION_TYPE":"U","NORAD_CAT_ID":31102,"ELEMENT_SET_NO":999,"REV_AT_EPOCH":4583,"BSTAR":0,"MEAN_MOTION_DOT":1.0e-8,"MEAN_MOTION_DDOT":0},{"OBJECT_NAME":"NIMIQ 4","OBJECT_ID":"2008-044A","EPOCH":"2026-04-05T19:11:59.038368","MEAN_MOTION":1.00272689,"ECCENTRICITY":0.0002384,"INCLINATION":0.0186,"RA_OF_ASC_NODE":235.4564,"ARG_OF_PERICENTER":128.0148,"MEAN_ANOMALY":36.6167,"EPHEMERIS_TYPE":0,"CLASSIFICATION_TYPE":"U","NORAD_CAT_ID":33373,"ELEMENT_SET_NO":999,"REV_AT_EPOCH":6425,"BSTAR":0,"MEAN_MOTION_DOT":-2.19e-6,"MEAN_MOTION_DDOT":0},{"OBJECT_NAME":"TELSTAR 11N","OBJECT_ID":"2009-009A","EPOCH":"2026-04-05T19:24:42.816096","MEAN_MOTION":1.00272802,"ECCENTRICITY":0.0002388,"INCLINATION":0.0161,"RA_OF_ASC_NODE":184.498,"ARG_OF_PERICENTER":186.3851,"MEAN_ANOMALY":76.8478,"EPHEMERIS_TYPE":0,"CLASSIFICATION_TYPE":"U","NORAD_CAT_ID":34111,"ELEMENT_SET_NO":999,"REV_AT_EPOCH":4551,"BSTAR":0,"MEAN_MOTION_DOT":-2.49e-6,"MEAN_MOTION_DDOT":0},{"OBJECT_NAME":"TERRESTAR-1","OBJECT_ID":"2009-035A","EPOCH":"2026-04-05T12:41:47.955264","MEAN_MOTION":1.00277346,"ECCENTRICITY":0.0003253,"INCLINATION":5.1254,"RA_OF_ASC_NODE":48.8037,"ARG_OF_PERICENTER":327.475,"MEAN_ANOMALY":257.0193,"EPHEMERIS_TYPE":0,"CLASSIFICATION_TYPE":"U","NORAD_CAT_ID":35496,"ELEMENT_SET_NO":999,"REV_AT_EPOCH":6140,"BSTAR":0,"MEAN_MOTION_DOT":-5.4e-7,"MEAN_MOTION_DDOT":0},{"OBJECT_NAME":"NIMIQ 5","OBJECT_ID":"2009-050A","EPOCH":"2026-04-05T19:14:43.774656","MEAN_MOTION":1.00272091,"ECCENTRICITY":0.0002941,"INCLINATION":0.0474,"RA_OF_ASC_NODE":81.7378,"ARG_OF_PERICENTER":299.6711,"MEAN_ANOMALY":28.6708,"EPHEMERIS_TYPE":0,"CLASSIFICATION_TYPE":"U","NORAD_CAT_ID":35873,"ELEMENT_SET_NO":999,"REV_AT_EPOCH":6061,"BSTAR":0,"MEAN_MOTION_DOT":-2.55e-6,"MEAN_MOTION_DDOT":0},{"OBJECT_NAME":"SKYTERRA 1","OBJECT_ID":"2010-061A","EPOCH":"2026-04-05T09:37:38.648928","MEAN_MOTION":1.00272046,"ECCENTRICITY":0.00025656,"INCLINATION":4.9714,"RA_OF_ASC_NODE":50.8871,"ARG_OF_PERICENTER":4.1567,"MEAN_ANOMALY":181.7463,"EPHEMERIS_TYPE":0,"CLASSIFICATION_TYPE":"U","NORAD_CAT_ID":37218,"ELEMENT_SET_NO":999,"REV_AT_EPOCH":5646,"BSTAR":0,"MEAN_MOTION_DOT":-1.15e-6,"MEAN_MOTION_DDOT":0},{"OBJECT_NAME":"TELSTAR 14R","OBJECT_ID":"2011-021A","EPOCH":"2026-04-05T12:26:41.703936","MEAN_MOTION":1.00270711,"ECCENTRICITY":0.0002408,"INCLINATION":0.0151,"RA_OF_ASC_NODE":212.9164,"ARG_OF_PERICENTER":168.3827,"MEAN_ANOMALY":296.189,"EPHEMERIS_TYPE":0,"CLASSIFICATION_TYPE":"U","NORAD_CAT_ID":37602,"ELEMENT_SET_NO":999,"REV_AT_EPOCH":5510,"BSTAR":0,"MEAN_MOTION_DOT":0,"MEAN_MOTION_DDOT":0},{"OBJECT_NAME":"NIMIQ 6","OBJECT_ID":"2012-026A","EPOCH":"2026-04-05T14:01:21.239040","MEAN_MOTION":1.00271662,"ECCENTRICITY":0.0002612,"INCLINATION":0.047,"RA_OF_ASC_NODE":68.6401,"ARG_OF_PERICENTER":307.0792,"MEAN_ANOMALY":297.3947,"EPHEMERIS_TYPE":0,"CLASSIFICATION_TYPE":"U","NORAD_CAT_ID":38342,"ELEMENT_SET_NO":999,"REV_AT_EPOCH":4968,"BSTAR":0,"MEAN_MOTION_DOT":-1.72e-6,"MEAN_MOTION_DDOT":0},{"OBJECT_NAME":"ANIK G1","OBJECT_ID":"2013-014A","EPOCH":"2026-04-05T15:39:25.314048","MEAN_MOTION":1.00272304,"ECCENTRICITY":0.0002452,"INCLINATION":0.0449,"RA_OF_ASC_NODE":81.9096,"ARG_OF_PERICENTER":279.5347,"MEAN_ANOMALY":320.0558,"EPHEMERIS_TYPE":0,"CLASSIFICATION_TYPE":"U","NORAD_CAT_ID":39127,"ELEMENT_SET_NO":999,"REV_AT_EPOCH":4752,"BSTAR":0,"MEAN_MOTION_DOT":-7.2e-7,"MEAN_MOTION_DDOT":0},{"OBJECT_NAME":"TELSTAR 12V","OBJECT_ID":"2015-068A","EPOCH":"2026-04-05T19:31:12.194112","MEAN_MOTION":1.00272436,"ECCENTRICITY":0.0002643,"INCLINATION":0.0194,"RA_OF_ASC_NODE":223.1783,"ARG_OF_PERICENTER":152.2827,"MEAN_ANOMALY":96.4479,"EPHEMERIS_TYPE":0,"CLASSIFICATION_TYPE":"U","NORAD_CAT_ID":41036,"ELEMENT_SET_NO":999,"REV_AT_EPOCH":3790,"BSTAR":0,"MEAN_MOTION_DOT":-1.17e-6,"MEAN_MOTION_DDOT":0},{"OBJECT_NAME":"VIASAT-2","OBJECT_ID":"2017-029A","EPOCH":"2026-04-05T12:24:49.383936","MEAN_MOTION":1.00271835,"ECCENTRICITY":4.75e-5,"INCLINATION":0.0195,"RA_OF_ASC_NODE":258.5085,"ARG_OF_PERICENTER":139.1488,"MEAN_ANOMALY":272.4575,"EPHEMERIS_TYPE":0,"CLASSIFICATION_TYPE":"U","NORAD_CAT_ID":42740,"ELEMENT_SET_NO":999,"REV_AT_EPOCH":3247,"BSTAR":0,"MEAN_MOTION_DOT":-2.64e-6,"MEAN_MOTION_DDOT":0},{"OBJECT_NAME":"LEO 1 (LEO VANTAGE 1)","OBJECT_ID":"2018-004C","EPOCH":"2026-04-05T17:00:50.624064","MEAN_MOTION":14.67474068,"ECCENTRICITY":0.0350511,"INCLINATION":99.2453,"RA_OF_ASC_NODE":4.5458,"ARG_OF_PERICENTER":302.0022,"MEAN_ANOMALY":54.756,"EPHEMERIS_TYPE":0,"CLASSIFICATION_TYPE":"U","NORAD_CAT_ID":43113,"ELEMENT_SET_NO":999,"REV_AT_EPOCH":42685,"BSTAR":0.00033121,"MEAN_MOTION_DOT":4.727e-5,"MEAN_MOTION_DDOT":0},{"OBJECT_NAME":"TELSTAR 19V","OBJECT_ID":"2018-059A","EPOCH":"2026-04-05T19:17:28.510944","MEAN_MOTION":1.00271621,"ECCENTRICITY":0.0001718,"INCLINATION":0.0191,"RA_OF_ASC_NODE":176.8417,"ARG_OF_PERICENTER":265.9637,"MEAN_ANOMALY":337.6537,"EPHEMERIS_TYPE":0,"CLASSIFICATION_TYPE":"U","NORAD_CAT_ID":43562,"ELEMENT_SET_NO":999,"REV_AT_EPOCH":2841,"BSTAR":0,"MEAN_MOTION_DOT":-2.78e-6,"MEAN_MOTION_DDOT":0},{"OBJECT_NAME":"TELSTAR 18V","OBJECT_ID":"2018-069A","EPOCH":"2026-04-05T20:14:47.083200","MEAN_MOTION":1.00271059,"ECCENTRICITY":0.0002109,"INCLINATION":0.0135,"RA_OF_ASC_NODE":251.4931,"ARG_OF_PERICENTER":125.9075,"MEAN_ANOMALY":258.4234,"EPHEMERIS_TYPE":0,"CLASSIFICATION_TYPE":"U","NORAD_CAT_ID":43611,"ELEMENT_SET_NO":999,"REV_AT_EPOCH":2791,"BSTAR":0,"MEAN_MOTION_DOT":-2.92e-6,"MEAN_MOTION_DDOT":0}]
