NIMIQ 2                 
1 27632U 02062A   26095.42945970 -.00000066  00000+0  00000+0 0  9993
2 27632   9.2794  57.6528 0006596 319.1088 222.3899  1.00273627 43451
ANIK F2                 
1 28378U 04027A   26095.65168300 -.00000047  00000+0  00000+0 0  9992
2 28378   3.0980  80.3901 0004096 322.7569 274.2931  1.00271898 40530
ANIK F1R                
1 28868U 05036A   26095.58106691 -.00000072  00000+0  00000+0 0  9992
2 28868   4.1271  77.4651 0003240 314.8703 263.4279  1.00272748 45726
ANIK F3                 
1 31102U 07009A   26095.65012299  .00000001  00000+0  00000+0 0  9998
2 31102   1.0097  84.6797 0002848 289.0293 295.5709  1.00271618 45835
NIMIQ 4                 
1 33373U 08044A   26095.79998887 -.00000219  00000+0  00000+0 0  9993
2 33373   0.0186 235.4564 0002384 128.0148  36.6167  1.00272689 64257
TELSTAR 11N             
1 34111U 09009A   26095.80882889 -.00000249  00000+0  00000+0 0  9995
2 34111   0.0161 184.4980 0002388 186.3851  76.8478  1.00272802 45514
TERRESTAR-1             
1 35496U 09035A   26095.52902726 -.00000054  00000+0  00000+0 0  9997
2 35496   5.1254  48.8037 0003253 327.4750 257.0193  1.00277346 61405
NIMIQ 5                 
1 35873U 09050A   26095.80189554 -.00000255  00000+0  00000+0 0  9993
2 35873   0.0474  81.7378 0002941 299.6711  28.6708  1.00272091 60614
SKYTERRA 1              
1 37218U 10061A   26095.40114177 -.00000115  00000+0  00000+0 0  9992
2 37218   4.9714  50.8871 0002565   4.1567 181.7463  1.00272046 56461
TELSTAR 14R             
1 37602U 11021A   26095.51853824  .00000000  00000+0  00000+0 0  9999
2 37602   0.0151 212.9164 0002408 168.3827 296.1890  1.00270711 55106
NIMIQ 6                 
1 38342U 12026A   26095.58427360 -.00000172  00000+0  00000+0 0  9997
2 38342   0.0470  68.6401 0002612 307.0792 297.3947  1.00271662 49680
ANIK G1                 
1 39127U 13014A   26095.65237632 -.00000072  00000+0  00000+0 0  9995
2 39127   0.0449  81.9096 0002452 279.5347 320.0558  1.00272304 47524
TELSTAR 12V             
1 41036U 15068A   26095.81333558 -.00000117  00000+0  00000+0 0  9990
2 41036   0.0194 223.1783 0002643 152.2827  96.4479  1.00272436 37901
VIASAT-2                
1 42740U 17029A   26095.51723824 -.00000264  00000+0  00000+0 0  9991
2 42740   0.0195 258.5085 0000475 139.1488 272.4575  1.00271835 32472
LEO 1 (LEO VANTAGE 1)   
1 43113U 18004C   26095.70891926  .00004727  00000+0  33121-3 0  9991
2 43113  99.2453   4.5458 0350511 302.0022  54.7560 14.67474068426855
TELSTAR 19V             
1 43562U 18059A   26095.80380221 -.00000278  00000+0  00000+0 0  9995
2 43562   0.0191 176.8417 0001718 265.9637 337.6537  1.00271621 28411
TELSTAR 18V             
1 43611U 18069A   26095.84360050 -.00000292  00000+0  00000+0 0  9999
2 43611   0.0135 251.4931 0002109 125.9075 258.4234  1.00271059 27914
